{
  "type": "FeatureCollection",
  "features": [
    {
      "type": "Feature",
      "properties": {
        "norad_id": 65731,
        "name": "1998-067XK",
        "group": "stations",
        "lat": -49.03870363667394,
        "lon": -49.051361930570486,
        "alt_km": 366.96965841364,
        "timestamp": "2025-12-26T22:28:04.532826+00:00",
        "meta_object_name": "1998-067XK",
        "meta_object_id": "1998-067XK",
        "meta_epoch": "2025-12-26T10:41:00.043296",
        "meta_mean_motion": 15.68417906,
        "meta_eccentricity": 0.000501,
        "meta_inclination": 51.6285,
        "meta_ra_of_asc_node": 67.5635,
        "meta_arg_of_pericenter": 330.6256,
        "meta_mean_anomaly": 29.4459,
        "meta_ephemeris_type": 0,
        "meta_classification_type": "U",
        "meta_norad_cat_id": 65731,
        "meta_element_set_no": 999,
        "meta_rev_at_epoch": 1529,
        "meta_bstar": 0.0008587,
        "meta_mean_motion_dot": 0.00099452,
        "meta_mean_motion_ddot": 0,
        "tle_line1": "1 65731U 98067XK  25360.44513939  .00099452  00000+0  85870-3 0  9995",
        "tle_line2": "2 65731  51.6285  67.5635 0005010 330.6256  29.4459 15.68417906 15291"
      },
      "geometry": {
        "type": "Point",
        "coordinates": [
          -49.051361930570486,
          -49.03870363667394
        ]
      }
    },
    {
      "type": "Feature",
      "properties": {
        "norad_id": 65732,
        "name": "RSP-03",
        "group": "stations",
        "lat": 28.63108715942692,
        "lon": 89.62933829246599,
        "alt_km": 346.38708263305307,
        "timestamp": "2025-12-26T22:28:04.532839+00:00",
        "meta_object_name": "RSP-03",
        "meta_object_id": "1998-067XL",
        "meta_epoch": "2025-12-26T11:37:50.673792",
        "meta_mean_motion": 15.72242351,
        "meta_eccentricity": 0.0006063,
        "meta_inclination": 51.6261,
        "meta_ra_of_asc_node": 66.3111,
        "meta_arg_of_pericenter": 338.1349,
        "meta_mean_anomaly": 21.939,
        "meta_ephemeris_type": 0,
        "meta_classification_type": "U",
        "meta_norad_cat_id": 65732,
        "meta_element_set_no": 999,
        "meta_rev_at_epoch": 1532,
        "meta_bstar": 0.0010599,
        "meta_mean_motion_dot": 0.00145049,
        "meta_mean_motion_ddot": 0,
        "tle_line1": "1 65732U 98067XL  25360.48461428  .00145049  00000+0  10599-2 0  9994",
        "tle_line2": "2 65732  51.6261  66.3111 0006063 338.1349  21.9390 15.72242351 15327"
      },
      "geometry": {
        "type": "Point",
        "coordinates": [
          89.62933829246599,
          28.63108715942692
        ]
      }
    },
    {
      "type": "Feature",
      "properties": {
        "norad_id": 65733,
        "name": "GHS-01",
        "group": "stations",
        "lat": -13.654152212872656,
        "lon": 50.75539994743559,
        "alt_km": 322.3943682308782,
        "timestamp": "2025-12-26T22:28:04.532850+00:00",
        "meta_object_name": "GHS-01",
        "meta_object_id": "1998-067XM",
        "meta_epoch": "2025-12-26T11:55:32.712960",
        "meta_mean_motion": 15.81335345,
        "meta_eccentricity": 0.0009525,
        "meta_inclination": 51.628,
        "meta_ra_of_asc_node": 64.1357,
        "meta_arg_of_pericenter": 2.9798,
        "meta_mean_anomaly": 357.1259,
        "meta_ephemeris_type": 0,
        "meta_classification_type": "U",
        "meta_norad_cat_id": 65733,
        "meta_element_set_no": 999,
        "meta_rev_at_epoch": 1535,
        "meta_bstar": 0.0013992,
        "meta_mean_motion_dot": 0.00292398,
        "meta_mean_motion_ddot": 0,
        "tle_line1": "1 65733U 98067XM  25360.49690640  .00292398  00000+0  13992-2 0  9996",
        "tle_line2": "2 65733  51.6280  64.1357 0009525   2.9798 357.1259 15.81335345 15354"
      },
      "geometry": {
        "type": "Point",
        "coordinates": [
          50.75539994743559,
          -13.654152212872656
        ]
      }
    },
    {
      "type": "Feature",
      "properties": {
        "norad_id": 65941,
        "name": "YOTSUBA-KULOVER",
        "group": "stations",
        "lat": 25.115983816175046,
        "lon": 90.32796975606838,
        "alt_km": 379.098160552614,
        "timestamp": "2025-12-26T22:28:04.532860+00:00",
        "meta_object_name": "YOTSUBA-KULOVER",
        "meta_object_id": "1998-067XN",
        "meta_epoch": "2025-12-26T14:38:51.631584",
        "meta_mean_motion": 15.61332207,
        "meta_eccentricity": 0.00025713,
        "meta_inclination": 51.6289,
        "meta_ra_of_asc_node": 70.1673,
        "meta_arg_of_pericenter": 5.6559,
        "meta_mean_anomaly": 354.4463,
        "meta_ephemeris_type": 0,
        "meta_classification_type": "U",
        "meta_norad_cat_id": 65941,
        "meta_element_set_no": 999,
        "meta_rev_at_epoch": 1202,
        "meta_bstar": 0.00084261791,
        "meta_mean_motion_dot": 0.0007325,
        "meta_mean_motion_ddot": 0,
        "tle_line1": "1 65941U 98067XN  25360.61031981  .00073250  00000+0  84262-3 0  9991",
        "tle_line2": "2 65941  51.6289  70.1673 0002571   5.6559 354.4463 15.61332207 12021"
      },
      "geometry": {
        "type": "Point",
        "coordinates": [
          90.32796975606838,
          25.115983816175046
        ]
      }
    },
    {
      "type": "Feature",
      "properties": {
        "norad_id": 65942,
        "name": "BOTAN",
        "group": "stations",
        "lat": -18.692484066911415,
        "lon": -97.03436163357519,
        "alt_km": 375.355524683775,
        "timestamp": "2025-12-26T22:28:04.532871+00:00",
        "meta_object_name": "BOTAN",
        "meta_object_id": "1998-067XP",
        "meta_epoch": "2025-12-26T10:52:42.060576",
        "meta_mean_motion": 15.65808737,
        "meta_eccentricity": 0.00035646,
        "meta_inclination": 51.6278,
        "meta_ra_of_asc_node": 69.8667,
        "meta_arg_of_pericenter": 346.4862,
        "meta_mean_anomaly": 13.6037,
        "meta_ephemeris_type": 0,
        "meta_classification_type": "U",
        "meta_norad_cat_id": 65942,
        "meta_element_set_no": 999,
        "meta_rev_at_epoch": 1201,
        "meta_bstar": 0.0010505339,
        "meta_mean_motion_dot": 0.0010964,
        "meta_mean_motion_ddot": 0,
        "tle_line1": "1 65942U 98067XP  25360.45326459  .00109640  00000+0  10505-2 0  9992",
        "tle_line2": "2 65942  51.6278  69.8667 0003564 346.4862  13.6037 15.65808737 12014"
      },
      "geometry": {
        "type": "Point",
        "coordinates": [
          -97.03436163357519,
          -18.692484066911415
        ]
      }
    },
    {
      "type": "Feature",
      "properties": {
        "norad_id": 65943,
        "name": "E-KAGAKU-1",
        "group": "stations",
        "lat": 24.803306830746063,
        "lon": 90.0086196888847,
        "alt_km": 380.14704058539064,
        "timestamp": "2025-12-26T22:28:04.532883+00:00",
        "meta_object_name": "E-KAGAKU-1",
        "meta_object_id": "1998-067XQ",
        "meta_epoch": "2025-12-26T11:34:38.215200",
        "meta_mean_motion": 15.61326456,
        "meta_eccentricity": 0.00014737,
        "meta_inclination": 51.6304,
        "meta_ra_of_asc_node": 70.8185,
        "meta_arg_of_pericenter": 333.5123,
        "meta_mean_anomaly": 26.5795,
        "meta_ephemeris_type": 0,
        "meta_classification_type": "U",
        "meta_norad_cat_id": 65943,
        "meta_element_set_no": 999,
        "meta_rev_at_epoch": 1200,
        "meta_bstar": 0.0007949653,
        "meta_mean_motion_dot": 0.00069021,
        "meta_mean_motion_ddot": 0,
        "tle_line1": "1 65943U 98067XQ  25360.48238675  .00069021  00000+0  79497-3 0  9992",
        "tle_line2": "2 65943  51.6304  70.8185 0001473 333.5123  26.5795 15.61326456 12008"
      },
      "geometry": {
        "type": "Point",
        "coordinates": [
          90.0086196888847,
          24.803306830746063
        ]
      }
    },
    {
      "type": "Feature",
      "properties": {
        "norad_id": 66052,
        "name": "HRC MONOBLOCK CAMERA",
        "group": "stations",
        "lat": 50.77954604701674,
        "lon": 146.7772587443888,
        "alt_km": 396.0748610454848,
        "timestamp": "2025-12-26T22:28:04.532894+00:00",
        "meta_object_name": "HRC MONOBLOCK CAMERA",
        "meta_object_id": "1998-067XR",
        "meta_epoch": "2025-12-26T14:24:31.276800",
        "meta_mean_motion": 15.55102813,
        "meta_eccentricity": 0.0001915,
        "meta_inclination": 51.6303,
        "meta_ra_of_asc_node": 72.3477,
        "meta_arg_of_pericenter": 253.6034,
        "meta_mean_anomaly": 106.4747,
        "meta_ephemeris_type": 0,
        "meta_classification_type": "U",
        "meta_norad_cat_id": 66052,
        "meta_element_set_no": 999,
        "meta_rev_at_epoch": 1099,
        "meta_bstar": 0.00053584,
        "meta_mean_motion_dot": 0.00036444,
        "meta_mean_motion_ddot": 0,
        "tle_line1": "1 66052U 98067XR  25360.60036200  .00036444  00000+0  53584-3 0  9990",
        "tle_line2": "2 66052  51.6303  72.3477 0001915 253.6034 106.4747 15.55102813 10997"
      },
      "geometry": {
        "type": "Point",
        "coordinates": [
          146.7772587443888,
          50.77954604701674
        ]
      }
    }
  ]
}